H1 CPF 01  gfz 2022 06 20 12  6712 terrasarx 
H2 0702601  6201 31698    2022 06 20 12 59 42 2022 06 25 00 00 42   120 1 1  0 0 0
H9
10 0 59750  46782.000000  0    1151490.103    941053.120   6715638.574
10 0 59750  46902.000000  0     936422.465     51552.827   6813865.161
10 0 59750  47022.000000  0     689482.254   -834804.634   6792387.837
10 0 59750  47142.000000  0     415171.923  -1702038.098   6651581.110
10 0 59750  47262.000000  0     118746.517  -2534581.413   6393903.119
10 0 59750  47382.000000  0    -193886.546  -3317563.953   6023855.232
10 0 59750  47502.000000  0    -516282.870  -4037077.311   5547905.528
10 0 59750  47622.000000  0    -841590.114  -4680423.500   4974381.870
10 0 59750  47742.000000  0   -1162689.940  -5236345.354   4313335.327
10 0 59750  47862.000000  0   -1472350.776  -5695234.032   3576369.300
10 0 59750  47982.000000  0   -1763386.405  -6049304.854   2776437.047
10 0 59750  48102.000000  0   -2028817.771  -6292738.163   1927613.849
10 0 59750  48222.000000  0   -2262034.389  -6421782.812   1044845.935
10 0 59750  48342.000000  0   -2456949.466  -6434818.299    143680.662
10 0 59750  48462.000000  0   -2608145.726  -6332374.342   -760015.476
10 0 59750  48582.000000  0   -2711008.310  -6117106.890  -1650345.068
10 0 59750  48702.000000  0   -2761841.705  -5793731.336  -2511667.749
10 0 59750  48822.000000  0   -2757967.523  -5368914.855  -3328881.950
10 0 59750  48942.000000  0   -2697800.231  -4851130.226  -4087693.838
10 0 59750  49062.000000  0   -2580899.341  -4250476.344  -4774866.652
10 0 59750  49182.000000  0   -2407997.858  -3578471.727  -5378446.794
10 0 59750  49302.000000  0   -2181007.187  -2847825.986  -5887964.161
10 0 59750  49422.000000  0   -1902998.248  -2072193.884  -6294604.476
10 0 59750  49542.000000  0   -1578158.590  -1265916.974  -6591350.796
10 0 59750  49662.000000  0   -1211728.074   -443758.799  -6773092.748
10 0 59750  49782.000000  0    -809914.832    379361.673  -6836704.390
10 0 59750  49902.000000  0    -379791.294   1188634.163  -6781091.864
10 0 59750  50022.000000  0      70827.476   1969616.623  -6607209.818
10 0 59750  50142.000000  0     533520.849   2708486.308  -6318047.951
10 0 59750  50262.000000  0     999416.616   3392281.198  -5918586.828
10 0 59750  50382.000000  0    1459357.098   4009126.158  -5415719.830
10 0 59750  50502.000000  0    1904075.023   4548440.321  -4818145.343
10 0 59750  50622.000000  0    2324377.648   5001124.295  -4136228.105
10 0 59750  50742.000000  0    2711334.651   5359721.803  -3381828.705
10 0 59750  50862.000000  0    3056466.268   5618551.927  -2568105.361
10 0 59750  50982.000000  0    3351928.367   5773809.471  -1709288.830
10 0 59750  51102.000000  0    3590689.070   5823629.367   -820433.907
10 0 59750  51222.000000  0    3766691.826   5768113.051     82848.204
10 0 59750  51342.000000  0    3875000.745   5609315.176    984670.448
10 0 59750  51462.000000  0    3911924.800   5351190.308   1869157.023
10 0 59750  51582.000000  0    3875117.587   4999502.312   2720730.374
10 0 59750  51702.000000  0    3763649.728   4561698.325   3524395.557
10 0 59750  51822.000000  0    3578050.546   4046746.107   4266010.033
10 0 59750  51942.000000  0    3320322.399   3464946.555   4932535.930
10 0 59750  52062.000000  0    2993920.706   2827721.759   5512272.539
10 0 59750  52182.000000  0    2603705.329   2147383.216   5995057.496
10 0 59750  52302.000000  0    2155866.899   1436889.558   6372439.718
10 0 59750  52422.000000  0    1657825.279    709595.679   6637821.881
10 0 59750  52542.000000  0    1118103.538    -20999.286   6786568.702
10 0 59750  52662.000000  0     546180.753   -741501.132   6816083.684
10 0 59750  52782.000000  0     -47674.876  -1438866.554   6725852.474
10 0 59750  52902.000000  0    -652590.567  -2100639.032   6517450.776
10 0 59750  53022.000000  0   -1257287.740  -2715171.457   6194517.487
10 0 59750  53142.000000  0   -1850289.968  -3271831.114   5762693.864
10 0 59750  53262.000000  0   -2420139.060  -3761185.689   5229532.307
10 0 59750  53382.000000  0   -2955618.469  -4175168.133   4604372.207
10 0 59750  53502.000000  0   -3445978.227  -4507215.586   3898181.370
10 0 59750  53622.000000  0   -3881154.032  -4752378.696   3123365.980
10 0 59750  53742.000000  0   -4251976.034  -4907399.861   2293553.532
10 0 59750  53862.000000  0   -4550364.577  -4970758.784   1423351.573
10 0 59750  53982.000000  0   -4769507.211  -4942682.378    528085.398
10 0 59750  54102.000000  0   -4904011.979  -4825119.093   -376478.879
10 0 59750  54222.000000  0   -4950033.388  -4621678.336  -1274420.785
10 0 59750  54342.000000  0   -4905366.784  -4337535.780  -2149955.540
10 0 59750  54462.000000  0   -4769508.319  -3979306.581  -2987719.710
10 0 59750  54582.000000  0   -4543679.995  -3554891.370  -3773045.115
10 0 59750  54702.000000  0   -4230820.539  -3073300.180  -4492216.530
10 0 59750  54822.000000  0   -3835542.557  -2544458.050  -5132708.883
10 0 59750  54942.000000  0   -3364057.306  -1978997.419  -5683399.168
10 0 59750  55062.000000  0   -2824070.146  -1388042.591  -6134750.551
10 0 59750  55182.000000  0   -2224648.998   -782990.395  -6478967.099
10 0 59750  55302.000000  0   -1576067.705   -175291.794  -6710116.926
10 0 59750  55422.000000  0    -889629.102    423760.943  -6824222.389
10 0 59750  55542.000000  0    -177471.459   1003238.388  -6819320.862
10 0 59750  55662.000000  0     547641.138   1552768.284  -6695494.573
10 0 59750  55782.000000  0    1272541.001   2062716.002  -6454871.233
10 0 59750  55902.000000  0    1983891.574   2524351.138  -6101592.178
10 0 59750  56022.000000  0    2668428.276   2929996.159  -5641748.639
10 0 59750  56142.000000  0    3313202.760   3273154.438  -5083285.801
10 0 59750  56262.000000  0    3905826.756   3548617.087  -4435877.895
10 0 59750  56382.000000  0    4434713.036   3752546.516  -3710771.669
10 0 59750  56502.000000  0    4889307.439   3882533.539  -2920599.570
10 0 59750  56622.000000  0    5260305.264   3937626.510  -2079164.919
10 0 59750  56742.000000  0    5539848.233   3918332.310  -1201203.113
10 0 59750  56862.000000  0    5721696.554   3826587.187   -302121.687
10 0 59750  56982.000000  0    5801371.192   3665698.680    602274.378
10 0 59750  57102.000000  0    5776262.972   3440259.073   1496067.789
10 0 59750  57222.000000  0    5645703.687   3156031.925   2363517.941
10 0 59750  57342.000000  0    5410998.062   2819815.856   3189346.783
10 0 59750  57462.000000  0    5075415.406   2439287.989   3959016.256
10 0 59750  57582.000000  0    4644140.001   2022830.737   4658989.410
10 0 59750  57702.000000  0    4124185.359   1579348.113   5276968.537
10 0 59750  57822.000000  0    3524273.742   1118075.929   5802112.679
10 0 59750  57942.000000  0    2854679.441    648388.431   6225224.035
10 0 59750  58062.000000  0    2127045.913    179608.103   6538901.130
10 0 59750  58182.000000  0    1354180.159   -279177.572   6737662.391
10 0 59750  58302.000000  0     549824.701   -719291.492   6818038.214
10 0 59750  58422.000000  0    -271588.767  -1132630.589   6778627.100
10 0 59750  58542.000000  0   -1095198.076  -1511814.422   6620117.863
10 0 59750  58662.000000  0   -1905978.533  -1850317.082   6345277.065
10 0 59750  58782.000000  0   -2689014.673  -2142578.764   5958903.165
10 0 59750  58902.000000  0   -3429774.297  -2384097.773   5467750.887
10 0 59750  59022.000000  0   -4114383.311  -2571502.278   4880420.036
10 0 59750  59142.000000  0   -4729890.766  -2702598.035   4207209.155
10 0 59750  59262.000000  0   -5264520.070  -2776390.996   3459938.433
10 0 59750  59382.000000  0   -5707901.349  -2793084.742   2651744.876
10 0 59750  59502.000000  0   -6051281.112  -2754053.645   1796851.893
10 0 59750  59622.000000  0   -6287703.427  -2661792.203    910314.919
10 0 59750  59742.000000  0   -6412155.349  -2519838.865      7748.744
10 0 59750  59862.000000  0   -6421674.773  -2332678.274   -894955.227
10 0 59750  59982.000000  0   -6315416.943  -2105623.715  -1781918.989
10 0 59750  60102.000000  0   -6094676.298  -1844683.246  -2637565.632
10 0 59750  60222.000000  0   -5762866.022  -1556413.285  -3446898.494
10 0 59750  60342.000000  0   -5325455.945  -1247763.421  -4195766.783
10 0 59750  60462.000000  0   -4789871.079   -925916.590  -4871112.228
10 0 59750  60582.000000  0   -4165353.728   -598127.980  -5461192.764
10 0 59750  60702.000000  0   -3462792.336   -271567.076  -5955778.740
10 0 59750  60822.000000  0   -2694522.918     46833.926  -6346319.230
10 0 59750  60942.000000  0   -1874107.792    350521.827  -6626077.885
10 0 59750  61062.000000  0   -1016094.757    633451.419  -6790238.048
10 0 59750  61182.000000  0    -135762.087    890201.290  -6835976.263
10 0 59750  61302.000000  0     751147.003   1116074.353  -6762504.484
10 0 59750  61422.000000  0    1628698.208   1307180.665  -6571084.504
10 0 59750  61542.000000  0    2481047.125   1460503.872  -6265009.625
10 0 59750  61662.000000  0    3292720.542   1573948.558  -5849553.647
10 0 59750  61782.000000  0    4048893.649   1646367.632  -5331888.021
10 0 59750  61902.000000  0    4735660.396   1677570.275  -4720970.056
10 0 59750  62022.000000  0    5340293.981   1668310.182  -4027399.216
10 0 59750  62142.000000  0    5851489.678   1620253.256  -3263242.465
10 0 59750  62262.000000  0    6259585.724   1535925.411  -2441832.358
10 0 59750  62382.000000  0    6556758.434   1418641.783  -1577538.846
10 0 59750  62502.000000  0    6737184.118   1272418.144   -685517.305
10 0 59750  62622.000000  0    6797163.266   1101865.820    218561.330
10 0 59750  62742.000000  0    6735201.915    912073.906   1118792.433
10 0 59750  62862.000000  0    6552051.552    708481.192   1999324.581
10 0 59750  62982.000000  0    6250703.115    496739.850   2844648.985
10 0 59750  63102.000000  0    5836334.331    282575.705   3639880.439
10 0 59750  63222.000000  0    5316213.775     71648.199   4371026.038
99
